STARLINK-5678           
1 55460U 23015M   26187.51550777 -.00003517  00000+0 -11837-3 0  9992
2 55460  43.0056  17.7636 0002082 210.1536 149.9197 15.27570161188899
STARLINK-5628           
1 55466U 23015T   26187.51679521 -.00002239  00000+0 -71887-4 0  9999
2 55466  43.0067  17.7705 0001766 271.4761  88.5888 15.27561302188894
STARLINK-30454          
1 57915U 23147C   26186.93132228 -.00004033  00000+0 -13723-3 0  9997
2 57915  43.0042  17.2647 0001090 263.6880  96.3847 15.27551354154681
STARLINK-33830          
1 63587U 25076U   26186.92924141  .00026165  00000+0  95802-3 0  9990
2 63587  43.0008  13.9314 0001641 255.5007 104.5663 15.27543546 69915
STARLINK-36471          
1 67324U 26002V   26187.51467460  .00013359  00000+0  49435-3 0  9997
2 67324  43.0036  14.0324 0001202 262.6900  97.3815 15.27562442 29253
STARLINK-36473          
1 67325U 26002W   26186.93004169  .00019390  00000+0  71298-3 0  9999
2 67325  43.0062  17.3880 0002340 279.1489  80.9098 15.27546582 29321
