{
  "schema": "int-telemetry-real-tle-snapshot/v1",
  "source": "celestrak",
  "group": "STARLINK",
  "format": "celestrak-gp-json",
  "source_url": "https://celestrak.org/NORAD/elements/gp.php?NAME=STARLINK&FORMAT=JSON",
  "downloaded_at": "2026-07-07T07:29:27.338Z",
  "generated_at": "2026-07-07T07:29:37.186Z",
  "fingerprint": "4a165085",
  "shell_id": "starlink-real-43deg-490km",
  "catalog_count": 10705,
  "shell_count": 3263,
  "selected_count": 348,
  "mean_altitude_km": 490.18,
  "mean_inclination_deg": 43.0022,
  "mean_mean_motion_rev_per_day": 15.27582862,
  "layout": {
    "planes": 6,
    "satellites_per_plane": 58,
    "selection_strategy": "target-shell-raan-clusters-even-slot-sampling",
    "raan_cluster_threshold_deg": 3,
    "target_inclination_deg": 43,
    "target_altitude_km": 490,
    "selected_shell_key": "43.0deg-500km",
    "target_shell_distance": 0.46
  },
  "satellites": [
    {
      "satellite_id": "P01-S07",
      "norad_id": 57915,
      "satellite_name": "STARLINK-30454",
      "cospar_id": "2023-147C",
      "shell_id": "starlink-real-43deg-490km",
      "plane_id": 0,
      "slot_id": 6,
      "epoch": "2026-07-05T22:21:06.244992",
      "inclination": 43.0042,
      "raan": 17.264700000000005,
      "eccentricity": 0.00010908,
      "argument_of_perigee": 263.688,
      "mean_anomaly": 96.38470000000001,
      "mean_motion": 15.27551354,
      "bstar": -0.00013722965,
      "status": "active",
      "raw_omm": {
        "OBJECT_NAME": "STARLINK-30454",
        "OBJECT_ID": "2023-147C",
        "EPOCH": "2026-07-05T22:21:06.244992",
        "MEAN_MOTION": 15.27551354,
        "ECCENTRICITY": 0.00010908,
        "INCLINATION": 43.0042,
        "RA_OF_ASC_NODE": 17.2647,
        "ARG_OF_PERICENTER": 263.688,
        "MEAN_ANOMALY": 96.3847,
        "EPHEMERIS_TYPE": 0,
        "CLASSIFICATION_TYPE": "U",
        "NORAD_CAT_ID": 57915,
        "ELEMENT_SET_NO": 999,
        "REV_AT_EPOCH": 15468,
        "BSTAR": -0.00013722965,
        "MEAN_MOTION_DOT": -0.00004033,
        "MEAN_MOTION_DDOT": 0
      },
      "source": "celestrak",
      "source_url": "https://celestrak.org/NORAD/elements/gp.php?NAME=STARLINK&FORMAT=JSON",
      "catalog_fingerprint": "4a165085"
    },
    {
      "satellite_id": "P01-S08",
      "norad_id": 67325,
      "satellite_name": "STARLINK-36473",
      "cospar_id": "2026-002W",
      "shell_id": "starlink-real-43deg-490km",
      "plane_id": 0,
      "slot_id": 7,
      "epoch": "2026-07-05T22:19:15.602016",
      "inclination": 43.0062,
      "raan": 17.387999999999977,
      "eccentricity": 0.000234,
      "argument_of_perigee": 279.1489,
      "mean_anomaly": 80.90980000000002,
      "mean_motion": 15.27546582,
      "bstar": 0.00071298,
      "status": "active",
      "raw_omm": {
        "OBJECT_NAME": "STARLINK-36473",
        "OBJECT_ID": "2026-002W",
        "EPOCH": "2026-07-05T22:19:15.602016",
        "MEAN_MOTION": 15.27546582,
        "ECCENTRICITY": 0.000234,
        "INCLINATION": 43.0062,
        "RA_OF_ASC_NODE": 17.388,
        "ARG_OF_PERICENTER": 279.1489,
        "MEAN_ANOMALY": 80.9098,
        "EPHEMERIS_TYPE": 0,
        "CLASSIFICATION_TYPE": "U",
        "NORAD_CAT_ID": 67325,
        "ELEMENT_SET_NO": 999,
        "REV_AT_EPOCH": 2932,
        "BSTAR": 0.00071298,
        "MEAN_MOTION_DOT": 0.0001939,
        "MEAN_MOTION_DDOT": 0
      },
      "source": "celestrak",
      "source_url": "https://celestrak.org/NORAD/elements/gp.php?NAME=STARLINK&FORMAT=JSON",
      "catalog_fingerprint": "4a165085"
    },
    {
      "satellite_id": "P01-S09",
      "norad_id": 63587,
      "satellite_name": "STARLINK-33830",
      "cospar_id": "2025-076U",
      "shell_id": "starlink-real-43deg-490km",
      "plane_id": 0,
      "slot_id": 8,
      "epoch": "2026-07-05T22:18:06.457824",
      "inclination": 43.0008,
      "raan": 13.931399999999996,
      "eccentricity": 0.00016417,
      "argument_of_perigee": 255.50070000000005,
      "mean_anomaly": 104.56630000000001,
      "mean_motion": 15.27543546,
      "bstar": 0.00095802222,
      "status": "active",
      "raw_omm": {
        "OBJECT_NAME": "STARLINK-33830",
        "OBJECT_ID": "2025-076U",
        "EPOCH": "2026-07-05T22:18:06.457824",
        "MEAN_MOTION": 15.27543546,
        "ECCENTRICITY": 0.00016417,
        "INCLINATION": 43.0008,
        "RA_OF_ASC_NODE": 13.9314,
        "ARG_OF_PERICENTER": 255.5007,
        "MEAN_ANOMALY": 104.5663,
        "EPHEMERIS_TYPE": 0,
        "CLASSIFICATION_TYPE": "U",
        "NORAD_CAT_ID": 63587,
        "ELEMENT_SET_NO": 999,
        "REV_AT_EPOCH": 6991,
        "BSTAR": 0.00095802222,
        "MEAN_MOTION_DOT": 0.00026165,
        "MEAN_MOTION_DDOT": 0
      },
      "source": "celestrak",
      "source_url": "https://celestrak.org/NORAD/elements/gp.php?NAME=STARLINK&FORMAT=JSON",
      "catalog_fingerprint": "4a165085"
    },
    {
      "satellite_id": "P01-S10",
      "norad_id": 55466,
      "satellite_name": "STARLINK-5628",
      "cospar_id": "2023-015T",
      "shell_id": "starlink-real-43deg-490km",
      "plane_id": 0,
      "slot_id": 9,
      "epoch": "2026-07-06T12:24:11.106144",
      "inclination": 43.0067,
      "raan": 17.77049999999997,
      "eccentricity": 0.0001766,
      "argument_of_perigee": 271.4761,
      "mean_anomaly": 88.58879999999999,
      "mean_motion": 15.27561302,
      "bstar": -0.000071886915,
      "status": "active",
      "raw_omm": {
        "OBJECT_NAME": "STARLINK-5628",
        "OBJECT_ID": "2023-015T",
        "EPOCH": "2026-07-06T12:24:11.106144",
        "MEAN_MOTION": 15.27561302,
        "ECCENTRICITY": 0.0001766,
        "INCLINATION": 43.0067,
        "RA_OF_ASC_NODE": 17.7705,
        "ARG_OF_PERICENTER": 271.4761,
        "MEAN_ANOMALY": 88.5888,
        "EPHEMERIS_TYPE": 0,
        "CLASSIFICATION_TYPE": "U",
        "NORAD_CAT_ID": 55466,
        "ELEMENT_SET_NO": 999,
        "REV_AT_EPOCH": 18889,
        "BSTAR": -0.000071886915,
        "MEAN_MOTION_DOT": -0.00002239,
        "MEAN_MOTION_DDOT": 0
      },
      "source": "celestrak",
      "source_url": "https://celestrak.org/NORAD/elements/gp.php?NAME=STARLINK&FORMAT=JSON",
      "catalog_fingerprint": "4a165085"
    },
    {
      "satellite_id": "P01-S11",
      "norad_id": 55460,
      "satellite_name": "STARLINK-5678",
      "cospar_id": "2023-015M",
      "shell_id": "starlink-real-43deg-490km",
      "plane_id": 0,
      "slot_id": 10,
      "epoch": "2026-07-06T12:22:19.871328",
      "inclination": 43.0056,
      "raan": 17.763599999999997,
      "eccentricity": 0.00020824,
      "argument_of_perigee": 210.15359999999998,
      "mean_anomaly": 149.91970000000003,
      "mean_motion": 15.27570161,
      "bstar": -0.00011837218,
      "status": "active",
      "raw_omm": {
        "OBJECT_NAME": "STARLINK-5678",
        "OBJECT_ID": "2023-015M",
        "EPOCH": "2026-07-06T12:22:19.871328",
        "MEAN_MOTION": 15.27570161,
        "ECCENTRICITY": 0.00020824,
        "INCLINATION": 43.0056,
        "RA_OF_ASC_NODE": 17.7636,
        "ARG_OF_PERICENTER": 210.1536,
        "MEAN_ANOMALY": 149.9197,
        "EPHEMERIS_TYPE": 0,
        "CLASSIFICATION_TYPE": "U",
        "NORAD_CAT_ID": 55460,
        "ELEMENT_SET_NO": 999,
        "REV_AT_EPOCH": 18889,
        "BSTAR": -0.00011837218,
        "MEAN_MOTION_DOT": -0.00003517,
        "MEAN_MOTION_DDOT": 0
      },
      "source": "celestrak",
      "source_url": "https://celestrak.org/NORAD/elements/gp.php?NAME=STARLINK&FORMAT=JSON",
      "catalog_fingerprint": "4a165085"
    },
    {
      "satellite_id": "P01-S12",
      "norad_id": 67324,
      "satellite_name": "STARLINK-36471",
      "cospar_id": "2026-002V",
      "shell_id": "starlink-real-43deg-490km",
      "plane_id": 0,
      "slot_id": 11,
      "epoch": "2026-07-06T12:21:07.885440",
      "inclination": 43.0036,
      "raan": 14.032399999999996,
      "eccentricity": 0.00012021,
      "argument_of_perigee": 262.69000000000005,
      "mean_anomaly": 97.38150000000002,
      "mean_motion": 15.27562442,
      "bstar": 0.00049434885,
      "status": "active",
      "raw_omm": {
        "OBJECT_NAME": "STARLINK-36471",
        "OBJECT_ID": "2026-002V",
        "EPOCH": "2026-07-06T12:21:07.885440",
        "MEAN_MOTION": 15.27562442,
        "ECCENTRICITY": 0.00012021,
        "INCLINATION": 43.0036,
        "RA_OF_ASC_NODE": 14.0324,
        "ARG_OF_PERICENTER": 262.69,
        "MEAN_ANOMALY": 97.3815,
        "EPHEMERIS_TYPE": 0,
        "CLASSIFICATION_TYPE": "U",
        "NORAD_CAT_ID": 67324,
        "ELEMENT_SET_NO": 999,
        "REV_AT_EPOCH": 2925,
        "BSTAR": 0.00049434885,
        "MEAN_MOTION_DOT": 0.00013359,
        "MEAN_MOTION_DDOT": 0
      },
      "source": "celestrak",
      "source_url": "https://celestrak.org/NORAD/elements/gp.php?NAME=STARLINK&FORMAT=JSON",
      "catalog_fingerprint": "4a165085"
    }
  ]
}